ADRAS-J                 
1 58992U 24034A   24290.87113497  .00008401  00000+0  74009-3 0  9998
2 58992  98.2257 269.6547 0042776  10.6207 349.5906 14.96029027 36048
